     2.11           N: GPS NAV DATA                         RINEX VERSION / TYPE
teqc  2018Dec12     gpsops              20220105 01:04:13UTCPGM / RUN BY / DATE
Linux 2.6.32-573.12.1.x86_64|x86_64|gcc -static|Linux 64|=+ COMMENT
CHPI                                    MARKER NAME         COMMENT
41609M003                               MARKER NUMBER       COMMENT
4164613.9484 -4162456.9866 -2445028.7316                    COMMENT
                                                            COMMENT
This data is provided as a public service by NASA/JPL.      COMMENT
No warranty is expressed or implied regarding suitability   COMMENT
for use.  For further information, contact:                 COMMENT
Dave Stowers, NASA/JPL m/s 238-600                          COMMENT
4800 Oak Grove Drive, Pasadena CA 91109 USA                 COMMENT
                                                            END OF HEADER
14 22  1  4  2 29 36.0-6.552413105965D-05-5.684341886081D-12 0.000000000000D+00
    6.300000000000D+01 3.993750000000D+01 4.451613999020D-09-5.187465157603D-01
    2.054497599602D-06 1.278003794141D-03 1.140125095844D-05 5.153648141861D+03
    1.817760000000D+05 5.215406417847D-08 3.058255243052D+00 2.793967723846D-08
    9.546619062089D-01 1.568750000000D+02 3.064447775282D+00-7.782109870398D-09
   -5.368080744967D-10 1.000000000000D+00 2.191000000000D+03 0.000000000000D+00
    2.000000000000D+00 0.000000000000D+00-7.916241884232D-09 5.750000000000D+02
    1.788780000000D+05 4.000000000000D+00
 4 22  1  4  3 44 32.0-1.964787952602D-04 1.591615728103D-12 0.000000000000D+00
    2.300000000000D+01-6.500000000000D+00 4.399111812093D-09-3.003235220322D+00
   -3.203749656677D-07 1.634161686525D-03 1.005642116070D-05 5.153666082382D+03
    1.862720000000D+05 1.862645149231D-08 9.569324852676D-01-5.401670932770D-08
    9.608263489484D-01 1.865312500000D+02-3.114524610989D+00-7.771395138373D-09
    6.821712723145D-10 1.000000000000D+00 2.191000000000D+03 0.000000000000D+00
    2.000000000000D+00 0.000000000000D+00-4.190951585770D-09 2.300000000000D+01
    1.791180000000D+05 4.000000000000D+00
 2 22  1  4  2  0  0.0-6.476803682745D-04-1.023181539495D-12 0.000000000000D+00
    8.300000000000D+01-6.687500000000D+00 4.925205154564D-09 7.026454578094D-01
   -6.146728992462D-07 2.065474796109D-02-4.265457391739D-07 5.153664632797D+03
    1.800000000000D+05-2.905726432800D-07-1.247638998749D+00-1.993030309677D-07
    9.646924859428D-01 3.963125000000D+02-1.462926278923D+00-9.007518056425D-09
   -1.592923494515D-10 1.000000000000D+00 2.191000000000D+03 0.000000000000D+00
    2.000000000000D+00 0.000000000000D+00-1.769512891769D-08 8.300000000000D+01
    1.796580000000D+05 4.000000000000D+00
 7 22  1  4  4  0  0.0 2.982448786497D-04 3.979039320257D-12 0.000000000000D+00
    2.900000000000D+01-2.562500000000D+00 5.299863617736D-09 9.265345763298D-01
   -2.607703208923D-08 1.539221650455D-02 5.267560482025D-06 5.153694116592D+03
    1.872000000000D+05-1.583248376846D-07 1.976658362086D+00 1.341104507446D-07
    9.505940854764D-01 2.755625000000D+02-2.297517712080D+00-8.534998374084D-09
   -1.985797002130D-10 1.000000000000D+00 2.191000000000D+03 0.000000000000D+00
    2.000000000000D+00 0.000000000000D+00-1.117587089539D-08 2.900000000000D+01
    1.800180000000D+05 4.000000000000D+00
 9 22  1  4  4  0  0.0-3.589121624827D-04 1.023181539495D-12 0.000000000000D+00
    2.200000000000D+01-1.215625000000D+01 4.542332063506D-09-2.069518308704D+00
   -6.575137376785D-07 2.351760282181D-03 1.038983464241D-05 5.153647930145D+03
    1.872000000000D+05 2.235174179077D-08 9.043036518769D-01 1.117587089539D-08
    9.538476533206D-01 1.762812500000D+02 1.856902128227D+00-7.868899199808D-09
    6.196686688302D-10 1.000000000000D+00 2.191000000000D+03 0.000000000000D+00
    2.000000000000D+00 0.000000000000D+00 1.396983861923D-09 2.200000000000D+01
    1.800180000000D+05 4.000000000000D+00
 4 22  1  4  4  0  0.0-1.964769326150D-04 1.591615728103D-12 0.000000000000D+00
    2.400000000000D+01-7.000000000000D+00 4.394111603814D-09-2.867894890282D+00
   -3.501772880554D-07 1.634324202314D-03 1.013278961182D-05 5.153665784836D+03
    1.872000000000D+05 3.352761268616D-08 9.569252994140D-01-4.097819328308D-08
    9.608270321311D-01 1.853125000000D+02-3.114507796208D+00-7.759608933144D-09
    6.800283259093D-10 1.000000000000D+00 2.191000000000D+03 0.000000000000D+00
    2.000000000000D+00 0.000000000000D+00-4.190951585770D-09 2.400000000000D+01
    1.800180000000D+05 4.000000000000D+00
30 22  1  4  4  0  0.0-5.042599514127D-04-2.728484105319D-12 0.000000000000D+00
    6.800000000000D+01-4.656250000000D+00 5.577018019472D-09 9.310245776650D-01
   -1.564621925354D-07 5.386991077103D-03 4.846602678299D-06 5.153585212708D+03
    1.872000000000D+05-1.117587089539D-08 1.990455402891D+00 7.264316082001D-08
    9.357754553295D-01 2.727812500000D+02-2.754056105926D+00-8.542855844236D-09
   -1.357199389945D-10 1.000000000000D+00 2.191000000000D+03 0.000000000000D+00
    2.000000000000D+00 0.000000000000D+00 3.725290298462D-09 6.800000000000D+01
    1.800180000000D+05 4.000000000000D+00
 3 22  1  4  4  0  0.0-6.496347486973D-05-1.409716787748D-11 0.000000000000D+00
    4.400000000000D+01-1.528750000000D+02 4.030167872669D-09 4.112090813317D-01
   -8.003786206245D-06 3.845949308015D-03 8.065253496170D-06 5.153713392258D+03
    1.872000000000D+05-5.215406417847D-08-1.238249674526D-01 5.029141902924D-08
    9.724674010678D-01 2.303437500000D+02 9.849566867367D-01-7.870327830745D-09
   -1.835790753768D-10 1.000000000000D+00 2.191000000000D+03 0.000000000000D+00
    2.000000000000D+00 0.000000000000D+00 1.862645149231D-09 4.400000000000D+01
    1.800180000000D+05 4.000000000000D+00
 6 22  1  4  4  0  0.0 1.609795726836D-04 1.068656274583D-11 0.000000000000D+00
    7.600000000000D+01-2.475000000000D+01 4.266249134972D-09 1.964374129256D+00
   -1.171603798866D-06 2.580355037935D-03-9.164214134216D-07 5.153644863129D+03
    1.872000000000D+05 5.029141902924D-08-1.167541662099D+00-6.146728992462D-08
    9.857401993274D-01 4.057500000000D+02-1.013004043273D+00-8.283559329210D-09
   -1.732215010851D-10 1.000000000000D+00 2.191000000000D+03 0.000000000000D+00
    2.000000000000D+00 0.000000000000D+00 4.190951585770D-09 7.600000000000D+01
    1.800180000000D+05 4.000000000000D+00
16 22  1  4  3 59 44.0-4.505310207605D-04-5.570655048359D-12 0.000000000000D+00
    1.100000000000D+01 4.271875000000D+01 4.068026592493D-09-1.601993578560D+00
    2.045184373856D-06 1.258883927949D-02 1.133233308792D-05 5.153582746506D+03
    1.871840000000D+05 1.452863216400D-07 3.107449046777D+00-1.620501279831D-07
    9.712313888972D-01 1.600000000000D+02 6.919668097551D-01-7.506384099599D-09
   -4.675194740627D-10 1.000000000000D+00 2.191000000000D+03 0.000000000000D+00
    2.000000000000D+00 0.000000000000D+00-1.024454832077D-08 1.100000000000D+01
    1.800180000000D+05 4.000000000000D+00
22 22  1  4  4  0  0.0-4.256982356310D-04 8.867573342286D-12 0.000000000000D+00
    7.300000000000D+01-1.604687500000D+02 4.796985527988D-09 2.685383315371D+00
   -8.346512913704D-06 6.848888122477D-03 6.290152668953D-06 5.153648635864D+03
    1.872000000000D+05 6.519258022308D-08-2.310220730081D-01 7.264316082001D-08
    9.383217944462D-01 2.445937500000D+02-8.637404050434D-01-8.142124866468D-09
   -2.528676758108D-10 1.000000000000D+00 2.191000000000D+03 0.000000000000D+00
    2.000000000000D+00 6.300000000000D+01-1.769512891769D-08 7.300000000000D+01
    1.800180000000D+05 4.000000000000D+00
 8 22  1  4  4  0  0.0-5.071889609098D-05-1.477928890381D-12 0.000000000000D+00
    4.900000000000D+01 1.585625000000D+02 4.305536485734D-09-2.389691517935D+00
    8.115544915199D-06 7.067107944749D-03 8.020550012589D-06 5.153705228806D+03
    1.872000000000D+05-1.043081283569D-07-2.238746566975D+00-1.341104507446D-07
    9.652679671939D-01 2.304375000000D+02 7.275647370774D-02-7.935687696103D-09
    2.557249376844D-10 1.000000000000D+00 2.191000000000D+03 0.000000000000D+00
    2.000000000000D+00 0.000000000000D+00 5.122274160385D-09 4.900000000000D+01
    1.800180000000D+05 4.000000000000D+00
11 22  1  4  4  0  0.0-1.057982444763D-05-3.478817234281D-11 0.000000000000D+00
    2.280000000000D+02-4.465625000000D+01 4.809843206419D-09-2.469464592941D+00
   -2.304092049599D-06 3.271533641964D-04-7.636845111847D-07 5.153753313065D+03
    1.872000000000D+05-5.587935447693D-09-1.114492963905D+00-5.215406417847D-08
    9.614727802634D-01 3.928750000000D+02 2.787879373178D+00-8.553570576262D-09
   -1.578637185147D-10 1.000000000000D+00 2.191000000000D+03 0.000000000000D+00
    2.800000000000D+00 6.300000000000D+01-8.847564458847D-09 4.840000000000D+02
    1.800180000000D+05 4.000000000000D+00
27 22  1  4  4  0  0.0 4.713609814644D-05 2.444267011015D-11 0.000000000000D+00
    8.800000000000D+01 1.691562500000D+02 4.060526280075D-09-2.471704889596D+00
    8.538365364075D-06 9.949426632375D-03 7.839873433113D-06 5.153654344559D+03
    1.872000000000D+05 7.078051567078D-08-2.219665271500D+00-1.899898052216D-07
    9.739331893923D-01 2.349687500000D+02 6.277781864185D-01-7.808182384995D-09
    3.142988060926D-10 1.000000000000D+00 2.191000000000D+03 0.000000000000D+00
    2.800000000000D+00 0.000000000000D+00 1.862645149231D-09 8.800000000000D+01
    1.800180000000D+05 4.000000000000D+00
 2 22  1  4  4  0  0.0-6.476878188550D-04-1.023181539495D-12 0.000000000000D+00
    8.400000000000D+01-1.006250000000D+01 4.649122226030D-09 1.752739234727D+00
   -1.030042767525D-06 2.065525751095D-02-1.683831214905D-06 5.153668464661D+03
    1.872000000000D+05 3.483146429062D-07-1.247702370898D+00-3.874301910400D-07
    9.646945135473D-01 4.098125000000D+02-1.462832207439D+00-8.355705191517D-09
   -9.214669542259D-11 1.000000000000D+00 2.191000000000D+03 0.000000000000D+00
    2.000000000000D+00 0.000000000000D+00-1.769512891769D-08 8.400000000000D+01
    1.800180000000D+05 4.000000000000D+00
